{
    "links": {
        "self": "http://www.neowsapp.com/rest/v1/neo/3632079?api_key=iIulBulltgU6a56xZRHN4H3l9WmuAYTsLGpBGhQ2"
    },
    "id": "3632079",
    "neo_reference_id": "3632079",
    "name": "(2013 EF68)",
    "designation": "2013 EF68",
    "nasa_jpl_url": "http://ssd.jpl.nasa.gov/sbdb.cgi?sstr=3632079",
    "absolute_magnitude_h": 25.8,
    "estimated_diameter": {
        "kilometers": {
            "estimated_diameter_min": 0.0183888672,
            "estimated_diameter_max": 0.0411187571
        },
        "meters": {
            "estimated_diameter_min": 18.388867207,
            "estimated_diameter_max": 41.1187571041
        },
        "miles": {
            "estimated_diameter_min": 0.0114263088,
            "estimated_diameter_max": 0.0255500032
        },
        "feet": {
            "estimated_diameter_min": 60.3309310875,
            "estimated_diameter_max": 134.9040630575
        }
    },
    "is_potentially_hazardous_asteroid": false,
    "close_approach_data": [
        {
            "close_approach_date": "1926-03-31",
            "close_approach_date_full": "1926-Mar-31 08:37",
            "epoch_date_close_approach": -1380813780000,
            "relative_velocity": {
                "kilometers_per_second": "29.0808253442",
                "kilometers_per_hour": "104690.9712391088",
                "miles_per_hour": "65050.898212434"
            },
            "miss_distance": {
                "astronomical": "0.4122040974",
                "lunar": "160.3473938886",
                "kilometers": "61664854.976312538",
                "miles": "38316764.1103195044"
            },
            "orbiting_body": "Earth"
        },
        {
            "close_approach_date": "2013-03-08",
            "close_approach_date_full": "2013-Mar-08 14:19",
            "epoch_date_close_approach": 1362752340000,
            "relative_velocity": {
                "kilometers_per_second": "16.8716506358",
                "kilometers_per_hour": "60737.9422888069",
                "miles_per_hour": "37740.1953071756"
            },
            "miss_distance": {
                "astronomical": "0.0157414744",
                "lunar": "6.1234335416",
                "kilometers": "2354891.040899528",
                "miles": "1463261.4404803664"
            },
            "orbiting_body": "Earth"
        }
    ],
    "orbital_data": {
        "orbit_id": "5",
        "orbit_determination_date": "2017-04-06 08:46:29",
        "first_observation_date": "2013-03-13",
        "last_observation_date": "2013-03-14",
        "data_arc_in_days": 1,
        "observations_used": 29,
        "orbit_uncertainty": "9",
        "minimum_orbit_intersection": ".0157357",
        "jupiter_tisserand_invariant": "3.562",
        "epoch_osculation": "2456365.5",
        "eccentricity": ".6396831207172898",
        "semi_major_axis": "1.988806003457583",
        "inclination": "5.561416248497504",
        "ascending_node_longitude": "177.1659051274945",
        "orbital_period": "1024.44125681936",
        "perihelion_distance": ".7166003726645553",
        "perihelion_argument": "277.108283765403",
        "aphelion_distance": "3.261011634250611",
        "perihelion_time": "2456315.210753021866",
        "mean_anomaly": "17.67219817789957",
        "mean_motion": ".3514110717462826",
        "equinox": "J2000",
        "orbit_class": {
            "orbit_class_type": "APO",
            "orbit_class_description": "Near-Earth asteroid orbits which cross the Earth’s orbit similar to that of 1862 Apollo",
            "orbit_class_range": "a (semi-major axis) > 1.0 AU; q (perihelion) < 1.017 AU"
        }
    },
    "is_sentry_object": false
}